0 BREEZE-M DEB
1 38622U 08011BV  13285.24672851  .00000114  00000-0 -20633-4 0  1701
2 38622 048.8859 154.1222 6567294 276.7772 182.9023 03.08804121 22634
0 BREEZE-M DEB
1 38622U 08011BV  13286.38665148  .00000325  00000-0  58543-3 0  1712
2 38622 048.8866 153.6903 6567224 277.1534 010.1821 03.08801767 22660
0 BREEZE-M DEB
1 38622U 08011BV  13295.42512282  .00000073  00000-0 -21341-4 0  1726
2 38622 048.8908 150.2662 6566972 280.1427 338.2458 03.08812635 22943
